QIANFAN-57              
1 62787U 25016C   25241.94957102  .00000085  00000+0  11302-3 0  9997
2 62787  88.9810 114.0165 0002694  80.1186 280.0269 13.50962063 33052
QIANFAN-58              
1 62788U 25016D   25241.92078815  .00000116  00000+0  16077-3 0  9990
2 62788  88.9779 113.8836 0012270 291.0825  68.9014 13.50965219 33094
QIANFAN-59              
1 62789U 25016E   25241.93309653  .00000113  00000+0  15723-3 0  9993
2 62789  88.9803 113.9281 0013268 294.3107  65.6658 13.50965488 33091
QIANFAN-60              
1 62790U 25016F   25241.92471983  .00000104  00000+0  14266-3 0  9991
2 62790  88.9783 113.9283 0013675 291.7083  68.2611 13.50962700 33078
QIANFAN-61              
1 62791U 25016G   25241.93719021  .00000114  00000+0  15818-3 0  9996
2 62791  88.9851 114.0137 0013122 290.3109  69.6632 13.50968394 33091
QIANFAN-62              
1 62792U 25016H   25241.94122267  .00000088  00000+0  11744-3 0  9992
2 62792  88.9798 113.9383 0014497 290.3171  69.6422 13.50962289 33081
QIANFAN-63              
1 62793U 25016J   25241.95363766  .00000079  00000+0  10432-3 0  9998
2 62793  88.9804 113.8786 0014391 295.3386  64.6274 13.50959331 33121
QIANFAN-64              
1 62794U 25016K   25241.94532689  .00000087  00000+0  11618-3 0  9996
2 62794  88.9791 113.8737 0012110 289.0358  70.9481 13.50961913 33117
